{
    "links": {
        "self": "http://www.neowsapp.com/rest/v1/neo/3652858?api_key=iIulBulltgU6a56xZRHN4H3l9WmuAYTsLGpBGhQ2"
    },
    "id": "3652858",
    "neo_reference_id": "3652858",
    "name": "(2013 UZ)",
    "designation": "2013 UZ",
    "nasa_jpl_url": "http://ssd.jpl.nasa.gov/sbdb.cgi?sstr=3652858",
    "absolute_magnitude_h": 22.4,
    "estimated_diameter": {
        "kilometers": {
            "estimated_diameter_min": 0.0880146521,
            "estimated_diameter_max": 0.1968067451
        },
        "meters": {
            "estimated_diameter_min": 88.0146520901,
            "estimated_diameter_max": 196.8067450894
        },
        "miles": {
            "estimated_diameter_min": 0.0546897524,
            "estimated_diameter_max": 0.122290004
        },
        "feet": {
            "estimated_diameter_min": 288.7619911632,
            "estimated_diameter_max": 645.6914415591
        }
    },
    "is_potentially_hazardous_asteroid": false,
    "close_approach_data": [
        {
            "close_approach_date": "2013-10-12",
            "close_approach_date_full": "2013-Oct-12 07:18",
            "epoch_date_close_approach": 1381562280000,
            "relative_velocity": {
                "kilometers_per_second": "12.3948332015",
                "kilometers_per_hour": "44621.3995255148",
                "miles_per_hour": "27726.0023885067"
            },
            "miss_distance": {
                "astronomical": "0.0730596781",
                "lunar": "28.4202147809",
                "kilometers": "10929572.226645647",
                "miles": "6791321.2638860486"
            },
            "orbiting_body": "Earth"
        }
    ],
    "orbital_data": {
        "orbit_id": "15",
        "orbit_determination_date": "2017-04-06 08:44:06",
        "first_observation_date": "2013-10-20",
        "last_observation_date": "2013-11-11",
        "data_arc_in_days": 22,
        "observations_used": 64,
        "orbit_uncertainty": "7",
        "minimum_orbit_intersection": ".0319631",
        "jupiter_tisserand_invariant": "3.229",
        "epoch_osculation": "2459000.5",
        "eccentricity": ".6201955524862357",
        "semi_major_axis": "2.400992266722557",
        "inclination": "4.607011901681578",
        "ascending_node_longitude": "321.4901601381965",
        "orbital_period": "1358.890832456271",
        "perihelion_distance": ".9119075413473814",
        "perihelion_argument": "18.88838215625428",
        "aphelion_distance": "3.890076992097733",
        "perihelion_time": "2459276.333919567554",
        "mean_anomaly": "286.9255420136813",
        "mean_motion": ".2649219432507907",
        "equinox": "J2000",
        "orbit_class": {
            "orbit_class_type": "APO",
            "orbit_class_description": "Near-Earth asteroid orbits which cross the Earth’s orbit similar to that of 1862 Apollo",
            "orbit_class_range": "a (semi-major axis) > 1.0 AU; q (perihelion) < 1.017 AU"
        }
    },
    "is_sentry_object": false
}